OBJECT_NAME,OBJECT_ID,EPOCH,MEAN_MOTION,ECCENTRICITY,INCLINATION,RA_OF_ASC_NODE,ARG_OF_PERICENTER,MEAN_ANOMALY,EPHEMERIS_TYPE,CLASSIFICATION_TYPE,NORAD_CAT_ID,ELEMENT_SET_NO,REV_AT_EPOCH,BSTAR,MEAN_MOTION_DOT,MEAN_MOTION_DDOT
BEIDOU-3S IGSO-1S (C31),2015-019A,2026-06-14T20:12:21.455136,1.00250661,.0039134,49.1999,295.4904,191.2000,171.1730,0,U,40549,999,4105,0,-.179E-5,0
GPS BIIF-10 (PRN 08),2015-033A,2026-06-13T17:32:26.506176,2.00556346,.0115065,53.9851,267.2291,30.2200,330.4662,0,U,40730,999,7992,0,-.17E-6,0
BEIDOU-3S M2S (C58),2015-037A,2026-06-14T02:26:20.819040,1.86232117,.0008226,54.8742,302.1534,259.7904,100.0986,0,U,40748,999,7406,0,-.69E-6,0
BEIDOU-3S M1S (C57),2015-037B,2026-06-14T20:18:39.805056,1.86254759,.0003481,54.8696,302.1146,61.6537,298.3641,0,U,40749,999,7408,0,-.69E-6,0
GSAT0205 (GALILEO 9),2015-045A,2026-05-24T07:17:44.873376,1.67409242,.00064058,54.9357,222.4171,263.0112,96.9692,0,U,40889,999,6656,0,-.14E-6,0
GSAT0206 (GALILEO 10),2015-045B,2026-06-13T08:25:46.280640,1.70473791,.00016978,54.9458,221.7104,337.4891,22.6033,0,U,40890,999,6697,0,.61E-6,0
BEIDOU-3S IGSO-2S (C56),2015-053A,2026-06-14T19:46:42.792096,1.00259392,.0065717,49.2253,258.8113,192.1261,204.1557,0,U,40938,999,3933,0,-.131E-5,0
GPS BIIF-11 (PRN 10),2015-062A,2026-06-13T18:53:26.786976,2.00566893,.01118307,56.9570,30.9422,231.0904,127.9641,0,U,41019,999,7776,0,-.62E-6,0
GSAT-15 (GAGAN/PRN 139),2015-065A,2026-06-14T20:23:39.142176,1.00271039,.0004077,0.0762,265.6449,161.4771,235.4239,0,U,41028,999,3877,0,-.252E-5,0
GSAT0209 (GALILEO 12),2015-079A,2026-06-14T02:32:22.118784,1.70473658,.00053355,55.8256,101.3465,342.3139,17.6233,0,U,41174,999,6472,0,-.9E-7,0
GSAT0208 (GALILEO 11),2015-079B,2026-06-14T07:49:36.507072,1.70473576,.0004862,55.8243,101.3373,343.1705,16.7693,0,U,41175,999,6514,0,-.1E-6,0
IRNSS-1E,2016-003A,2026-06-12T15:26:18.985920,1.00267194,.00179637,33.2248,59.8162,179.0965,5.2620,0,U,41241,999,3803,0,-.313E-5,0
GPS BIIF-12 (PRN 32),2016-007A,2026-06-10T21:16:03.868896,2.00551975,.00960688,55.5202,89.7095,247.3778,111.5924,0,U,41328,999,7571,0,-.12E-6,0
COSMOS 2514 (751),2016-008A,2026-06-14T00:00:29.301696,2.13102509,.00111652,65.0237,313.1159,197.7878,162.1578,0,U,41330,999,8055,0,-.53E-6,0
BEIDOU-2 IGSO-6 (C13),2016-021A,2026-06-14T15:02:21.911136,1.00259627,.0057107,60.2220,38.0652,231.4956,311.9910,0,U,41434,999,3745,0,-.152E-5,0
IRNSS-1G,2016-027A,2026-06-14T18:51:20.623104,1.00267255,.0007541,5.1921,97.5283,354.5074,223.4057,0,U,41469,999,3715,0,-.332E-5,0
GSAT0211 (GALILEO 14),2016-030A,2026-06-14T10:48:10.446624,1.70473900,.0002887,55.0959,221.7703,323.8922,36.1904,0,U,41549,999,6262,0,.59E-6,0
GSAT0210 (GALILEO 13),2016-030B,2026-06-14T02:53:57.768864,1.70473721,.0004352,55.0957,221.7773,242.7300,117.3275,0,U,41550,999,6261,0,.6E-6,0
BEIDOU-2 G7 (C03),2016-037A,2026-06-14T20:28:31.175040,1.00264841,.000676,1.7130,69.2938,3.8205,247.5929,0,U,41586,999,686,0,-.348E-5,0
EUTELSAT 117 WEST B (WAAS/PRN 131),2016-038B,2026-06-14T15:58:26.061024,1.00268178,.000045,0.0084,153.1562,261.4682,330.9477,0,U,41589,999,3663,0,-.5E-7,0
GSAT0207 (GALILEO 15),2016-069A,2026-06-13T05:25:15.549024,1.70473583,.000534,55.4965,101.1958,329.2109,30.7143,0,U,41859,999,5933,0,-.5E-7,0
GSAT0212 (GALILEO 16),2016-069B,2026-06-14T06:03:34.358400,1.70473713,.0004642,55.4947,101.1626,358.3825,1.5720,0,U,41860,999,5960,0,-.11E-6,0
GSAT0213 (GALILEO 17),2016-069C,2026-06-11T16:28:59.869920,1.70474158,.00050604,55.4953,101.2414,311.8034,48.1151,0,U,41861,999,5942,0,.7E-7,0
GSAT0214 (GALILEO 18),2016-069D,2026-06-14T04:18:14.499072,1.70473798,.0004255,55.4956,101.1651,319.5735,40.3509,0,U,41862,999,5959,0,-.1E-6,0
SES-15 (WAAS/PRN 133),2017-026A,2026-06-14T17:37:33.048192,1.00265829,.0001033,0.0208,332.5700,33.0120,32.6656,0,U,42709,999,740,0,.67E-6,0
QZS-2 (QZSS/PRN 194),2017-028A,2026-06-14T12:35:02.340960,1.00284682,.0760401,39.4315,243.1943,269.2280,80.7522,0,U,42738,999,759,0,-.137E-5,0
QZS-3 (QZSS/PRN 199),2017-048A,2026-06-14T20:33:15.721344,1.00263935,.0002455,0.0269,155.9612,296.2792,246.1635,0,U,42917,999,3223,0,0,0
COSMOS 2522 (752),2017-055A,2026-06-13T08:51:13.499136,2.13101904,.0010818,64.0787,192.0144,240.5111,119.4561,0,U,42939,999,6789,0,.114E-5,0
QZS-4 (QZSS/PRN 195),2017-062A,2026-06-14T08:35:20.737824,1.00251032,.07452491,40.1096,343.5183,271.7117,273.4729,0,U,42965,999,3177,0,-.335E-5,0
BEIDOU-3 M1 (C19),2017-069A,2026-06-13T08:59:02.379840,1.86231168,.0010559,56.6884,63.2107,324.8482,35.1090,0,U,43001,999,5853,0,-.55E-6,0
BEIDOU-3 M2 (C20),2017-069B,2026-06-12T18:37:35.969664,1.86230859,.00092204,56.6872,63.2666,350.0125,9.9939,0,U,43002,999,5851,0,-.55E-6,0
